CENTAURI-1              
1 43809U 18099BD  26198.09632026  .00002877  00000+0  15026-3 0  9995
2 43809  97.4201 249.1761 0013137 217.7494 142.2819 15.16635309417039
CENTAURI-6              
1 59451U 24066K   26198.18463559  .00002417  00000+0  17967-3 0  9995
2 59451  45.6065  97.8045 0001670 253.3246 106.7455 15.06045195124645
CENTAURI-7              
1 62708U 25009DD  26198.18884704  .00001350  00000+0  11931-3 0  9991
2 62708  97.7099 278.0849 0002639  98.8068 261.3453 14.97980741 81950
CENTAURI-8              
1 62714U 25009DK  26197.74999011  .00001476  00000+0  13018-3 0  9994
2 62714  97.7037 277.4709 0002470  77.5116 282.6383 14.97931033 81901
