{"fetched_at":"2026-07-17T17:38:08.388Z","source":"https://celestrak.org/NORAD/elements/gp.php?NAME=CENTAURI&FORMAT=JSON","constellation":"myriota","records":[{"OBJECT_NAME":"CENTAURI-1","OBJECT_ID":"2018-099BD","EPOCH":"2026-07-17T02:18:42.070464","CLASSIFICATION_TYPE":"U","MEAN_MOTION":15.16635309,"ECCENTRICITY":0.0013137,"INCLINATION":97.4201,"RA_OF_ASC_NODE":249.1761,"ARG_OF_PERICENTER":217.7494,"MEAN_ANOMALY":142.2819,"EPHEMERIS_TYPE":0,"NORAD_CAT_ID":43809,"ELEMENT_SET_NO":999,"REV_AT_EPOCH":41703,"BSTAR":0.00015026312,"MEAN_MOTION_DOT":0.00002877,"MEAN_MOTION_DDOT":0},{"OBJECT_NAME":"CENTAURI-6","OBJECT_ID":"2024-066K","EPOCH":"2026-07-17T04:25:52.514976","CLASSIFICATION_TYPE":"U","MEAN_MOTION":15.06045195,"ECCENTRICITY":0.00016705,"INCLINATION":45.6065,"RA_OF_ASC_NODE":97.8045,"ARG_OF_PERICENTER":253.3246,"MEAN_ANOMALY":106.7455,"EPHEMERIS_TYPE":0,"NORAD_CAT_ID":59451,"ELEMENT_SET_NO":999,"REV_AT_EPOCH":12464,"BSTAR":0.00017966789,"MEAN_MOTION_DOT":0.00002417,"MEAN_MOTION_DDOT":0},{"OBJECT_NAME":"CENTAURI-7","OBJECT_ID":"2025-009DD","EPOCH":"2026-07-17T04:31:56.384256","CLASSIFICATION_TYPE":"U","MEAN_MOTION":14.97980741,"ECCENTRICITY":0.00026394,"INCLINATION":97.7099,"RA_OF_ASC_NODE":278.0849,"ARG_OF_PERICENTER":98.8068,"MEAN_ANOMALY":261.3453,"EPHEMERIS_TYPE":0,"NORAD_CAT_ID":62708,"ELEMENT_SET_NO":999,"REV_AT_EPOCH":8195,"BSTAR":0.00011931239,"MEAN_MOTION_DOT":0.0000135,"MEAN_MOTION_DDOT":0},{"OBJECT_NAME":"CENTAURI-8","OBJECT_ID":"2025-009DK","EPOCH":"2026-07-16T17:59:59.145504","CLASSIFICATION_TYPE":"U","MEAN_MOTION":14.97931033,"ECCENTRICITY":0.00024706,"INCLINATION":97.7037,"RA_OF_ASC_NODE":277.4709,"ARG_OF_PERICENTER":77.5116,"MEAN_ANOMALY":282.6383,"EPHEMERIS_TYPE":0,"NORAD_CAT_ID":62714,"ELEMENT_SET_NO":999,"REV_AT_EPOCH":8190,"BSTAR":0.00013017682,"MEAN_MOTION_DOT":0.00001476,"MEAN_MOTION_DDOT":0}]}
